STARLINK-31048          
1 58544U 23192P   26068.39407488  .00000536  00000+0  30230-4 0  9993
2 58544  53.1609  63.8180 0001316  94.5572 265.5580 15.30193289125944
TEVEL2-3                
1 63218U 25052J   26068.64540225  .00020365  00000+0  69446-3 0  9991
2 63218  97.3994 324.7775 0004761 105.7353 254.4413 15.30377031 54855
